ONEWEB-0564             
1 55801U 23029F   26135.86292372 -.00000072  00000+0 -20981-3 0  9994
2 55801  87.9156 280.9032 0002290 102.5796 257.5593 13.20677189156882
ONEWEB-0638             
1 55802U 23029G   26136.19523917  .00000148  00000+0  36370-3 0  9995
2 55802  87.8924 296.1369 0002349  90.1860 269.9539 13.14504021155193
ONEWEB-0639             
1 55803U 23029H   26136.18887317  .00000040  00000+0  68376-4 0  9995
2 55803  87.9147 311.3569 0001422  58.7256 301.4016 13.19725528154681
ONEWEB-0640             
1 55804U 23029J   26136.20475655  .00000233  00000+0  59319-3 0  9997
2 55804  87.8924 296.1260 0002299  80.9657 279.1733 13.14504076155212
ONEWEB-0641             
1 55805U 23029K   26136.18412677  .00000082  00000+0  17295-3 0  9999
2 55805  87.9149 311.3450 0001677  88.7396 271.3929 13.19726682154695
ONEWEB-0642             
1 55806U 23029L   26136.17938419 -.00000014  00000+0 -67030-4 0  9996
2 55806  87.9148 311.3596 0001230  68.1050 292.0214 13.19725745154685
ONEWEB-0643             
1 55807U 23029M   26136.02239861 -.00000111  00000+0 -33259-3 0  9999
2 55807  87.8923 296.1492 0001140  87.9042 272.2218 13.14503607155165
ONEWEB-0644             
1 55808U 23029N   26136.25045826  .00000006  00000+0 -17655-4 0  9996
2 55808  87.9147 311.3474 0001479  84.4329 275.6972 13.19726403154697
ONEWEB-0645             
1 55809U 23029P   26136.19676278  .00000085  00000+0  18039-3 0  9993
2 55809  87.9144 311.3550 0001878  76.9119 283.2223 13.19726468154680
ONEWEB-0646             
1 55810U 23029Q   26136.06250786  .00000103  00000+0  22508-3 0  9990
2 55810  87.9143 311.3818 0001571  85.8315 274.2997 13.19724910154650
ONEWEB-0648             
1 55811U 23029R   26136.14292469  .00000028  00000+0  40454-4 0  9991
2 55811  87.8935 296.0958 0001663  64.2478 295.8824 13.14502838155181
ONEWEB-0649             
1 55812U 23029S   26136.23941156 -.00000031  00000+0 -10945-3 0  9993
2 55812  87.9147 311.3443 0001751  82.5605 277.5726 13.19725393154715
ONEWEB-0650             
1 55813U 23029T   26136.23467407 -.00000002  00000+0 -36130-4 0  9999
2 55813  87.9146 311.3478 0001486  80.1271 280.0030 13.19725204154685
ONEWEB-0652             
1 55814U 23029U   26136.04777852  .00000262  00000+0  67276-3 0  9997
2 55814  87.8927 296.1240 0001844 100.3964 259.7373 13.14503369155147
ONEWEB-0653             
1 55815U 23029V   26136.18412748  .00002031  00000+0  54403-2 0  9996
2 55815  87.8928 296.0936 0002097  94.8609 265.2760 13.14522078155199
ONEWEB-0654             
1 55816U 23029W   26136.02714518 -.00000024  00000+0 -99705-4 0  9998
2 55816  87.8930 296.1205 0002149 101.3294 258.8077 13.14500926155192
