[{"OBJECT_NAME":"ONEWEB-0564","OBJECT_ID":"2023-029F","EPOCH":"2026-05-15T20:42:36.609408","MEAN_MOTION":13.20677189,"ECCENTRICITY":0.000229,"INCLINATION":87.9156,"RA_OF_ASC_NODE":280.9032,"ARG_OF_PERICENTER":102.5796,"MEAN_ANOMALY":257.5593,"EPHEMERIS_TYPE":0,"CLASSIFICATION_TYPE":"U","NORAD_CAT_ID":55801,"ELEMENT_SET_NO":999,"REV_AT_EPOCH":15688,"BSTAR":-0.00020981,"MEAN_MOTION_DOT":-7.2e-07,"MEAN_MOTION_DDOT":0.0},{"OBJECT_NAME":"ONEWEB-0638","OBJECT_ID":"2023-029G","EPOCH":"2026-05-16T04:41:08.664288","MEAN_MOTION":13.14504021,"ECCENTRICITY":0.0002349,"INCLINATION":87.8924,"RA_OF_ASC_NODE":296.1369,"ARG_OF_PERICENTER":90.186,"MEAN_ANOMALY":269.9539,"EPHEMERIS_TYPE":0,"CLASSIFICATION_TYPE":"U","NORAD_CAT_ID":55802,"ELEMENT_SET_NO":999,"REV_AT_EPOCH":15519,"BSTAR":0.0003637,"MEAN_MOTION_DOT":1.48e-06,"MEAN_MOTION_DDOT":0.0},{"OBJECT_NAME":"ONEWEB-0639","OBJECT_ID":"2023-029H","EPOCH":"2026-05-16T04:31:58.641888","MEAN_MOTION":13.19725528,"ECCENTRICITY":0.0001422,"INCLINATION":87.9147,"RA_OF_ASC_NODE":311.3569,"ARG_OF_PERICENTER":58.7256,"MEAN_ANOMALY":301.4016,"EPHEMERIS_TYPE":0,"CLASSIFICATION_TYPE":"U","NORAD_CAT_ID":55803,"ELEMENT_SET_NO":999,"REV_AT_EPOCH":15468,"BSTAR":6.837600000000001e-05,"MEAN_MOTION_DOT":4e-07,"MEAN_MOTION_DDOT":0.0},{"OBJECT_NAME":"ONEWEB-0640","OBJECT_ID":"2023-029J","EPOCH":"2026-05-16T04:54:50.965920","MEAN_MOTION":13.14504076,"ECCENTRICITY":0.0002299,"INCLINATION":87.8924,"RA_OF_ASC_NODE":296.126,"ARG_OF_PERICENTER":80.9657,"MEAN_ANOMALY":279.1733,"EPHEMERIS_TYPE":0,"CLASSIFICATION_TYPE":"U","NORAD_CAT_ID":55804,"ELEMENT_SET_NO":999,"REV_AT_EPOCH":15521,"BSTAR":0.0005931900000000001,"MEAN_MOTION_DOT":2.33e-06,"MEAN_MOTION_DDOT":0.0},{"OBJECT_NAME":"ONEWEB-0641","OBJECT_ID":"2023-029K","EPOCH":"2026-05-16T04:25:08.552928","MEAN_MOTION":13.19726682,"ECCENTRICITY":0.0001677,"INCLINATION":87.9149,"RA_OF_ASC_NODE":311.345,"ARG_OF_PERICENTER":88.7396,"MEAN_ANOMALY":271.3929,"EPHEMERIS_TYPE":0,"CLASSIFICATION_TYPE":"U","NORAD_CAT_ID":55805,"ELEMENT_SET_NO":999,"REV_AT_EPOCH":15469,"BSTAR":0.00017295,"MEAN_MOTION_DOT":8.2e-07,"MEAN_MOTION_DDOT":0.0},{"OBJECT_NAME":"ONEWEB-0642","OBJECT_ID":"2023-029L","EPOCH":"2026-05-16T04:18:18.794016","MEAN_MOTION":13.19725745,"ECCENTRICITY":0.000123,"INCLINATION":87.9148,"RA_OF_ASC_NODE":311.3596,"ARG_OF_PERICENTER":68.105,"MEAN_ANOMALY":292.0214,"EPHEMERIS_TYPE":0,"CLASSIFICATION_TYPE":"U","NORAD_CAT_ID":55806,"ELEMENT_SET_NO":999,"REV_AT_EPOCH":15468,"BSTAR":-6.703e-05,"MEAN_MOTION_DOT":-1.4e-07,"MEAN_MOTION_DDOT":0.0},{"OBJECT_NAME":"ONEWEB-0643","OBJECT_ID":"2023-029M","EPOCH":"2026-05-16T00:32:15.239904","MEAN_MOTION":13.14503607,"ECCENTRICITY":0.000114,"INCLINATION":87.8923,"RA_OF_ASC_NODE":296.1492,"ARG_OF_PERICENTER":87.9042,"MEAN_ANOMALY":272.2218,"EPHEMERIS_TYPE":0,"CLASSIFICATION_TYPE":"U","NORAD_CAT_ID":55807,"ELEMENT_SET_NO":999,"REV_AT_EPOCH":15516,"BSTAR":-0.00033259,"MEAN_MOTION_DOT":-1.11e-06,"MEAN_MOTION_DDOT":0.0},{"OBJECT_NAME":"ONEWEB-0644","OBJECT_ID":"2023-029N","EPOCH":"2026-05-16T06:00:39.593664","MEAN_MOTION":13.19726403,"ECCENTRICITY":0.0001479,"INCLINATION":87.9147,"RA_OF_ASC_NODE":311.3474,"ARG_OF_PERICENTER":84.4329,"MEAN_ANOMALY":275.6972,"EPHEMERIS_TYPE":0,"CLASSIFICATION_TYPE":"U","NORAD_CAT_ID":55808,"ELEMENT_SET_NO":999,"REV_AT_EPOCH":15469,"BSTAR":-1.7655000000000003e-05,"MEAN_MOTION_DOT":6e-08,"MEAN_MOTION_DDOT":0.0},{"OBJECT_NAME":"ONEWEB-0645","OBJECT_ID":"2023-029P","EPOCH":"2026-05-16T04:43:20.304192","MEAN_MOTION":13.19726468,"ECCENTRICITY":0.0001878,"INCLINATION":87.9144,"RA_OF_ASC_NODE":311.355,"ARG_OF_PERICENTER":76.9119,"MEAN_ANOMALY":283.2223,"EPHEMERIS_TYPE":0,"CLASSIFICATION_TYPE":"U","NORAD_CAT_ID":55809,"ELEMENT_SET_NO":999,"REV_AT_EPOCH":15468,"BSTAR":0.00018039,"MEAN_MOTION_DOT":8.5e-07,"MEAN_MOTION_DDOT":0.0},{"OBJECT_NAME":"ONEWEB-0646","OBJECT_ID":"2023-029Q","EPOCH":"2026-05-16T01:30:00.679104","MEAN_MOTION":13.1972491,"ECCENTRICITY":0.0001571,"INCLINATION":87.9143,"RA_OF_ASC_NODE":311.3818,"ARG_OF_PERICENTER":85.8315,"MEAN_ANOMALY":274.2997,"EPHEMERIS_TYPE":0,"CLASSIFICATION_TYPE":"U","NORAD_CAT_ID":55810,"ELEMENT_SET_NO":999,"REV_AT_EPOCH":15465,"BSTAR":0.00022508,"MEAN_MOTION_DOT":1.03e-06,"MEAN_MOTION_DDOT":0.0},{"OBJECT_NAME":"ONEWEB-0648","OBJECT_ID":"2023-029R","EPOCH":"2026-05-16T03:25:48.693216","MEAN_MOTION":13.14502838,"ECCENTRICITY":0.0001663,"INCLINATION":87.8935,"RA_OF_ASC_NODE":296.0958,"ARG_OF_PERICENTER":64.2478,"MEAN_ANOMALY":295.8824,"EPHEMERIS_TYPE":0,"CLASSIFICATION_TYPE":"U","NORAD_CAT_ID":55811,"ELEMENT_SET_NO":999,"REV_AT_EPOCH":15518,"BSTAR":4.0454e-05,"MEAN_MOTION_DOT":2.8e-07,"MEAN_MOTION_DDOT":0.0},{"OBJECT_NAME":"ONEWEB-0649","OBJECT_ID":"2023-029S","EPOCH":"2026-05-16T05:44:45.158784","MEAN_MOTION":13.19725393,"ECCENTRICITY":0.0001751,"INCLINATION":87.9147,"RA_OF_ASC_NODE":311.3443,"ARG_OF_PERICENTER":82.5605,"MEAN_ANOMALY":277.5726,"EPHEMERIS_TYPE":0,"CLASSIFICATION_TYPE":"U","NORAD_CAT_ID":55812,"ELEMENT_SET_NO":999,"REV_AT_EPOCH":15471,"BSTAR":-0.00010945,"MEAN_MOTION_DOT":-3.1e-07,"MEAN_MOTION_DDOT":0.0},{"OBJECT_NAME":"ONEWEB-0650","OBJECT_ID":"2023-029T","EPOCH":"2026-05-16T05:37:55.839648","MEAN_MOTION":13.19725204,"ECCENTRICITY":0.0001486,"INCLINATION":87.9146,"RA_OF_ASC_NODE":311.3478,"ARG_OF_PERICENTER":80.1271,"MEAN_ANOMALY":280.003,"EPHEMERIS_TYPE":0,"CLASSIFICATION_TYPE":"U","NORAD_CAT_ID":55813,"ELEMENT_SET_NO":999,"REV_AT_EPOCH":15468,"BSTAR":-3.613e-05,"MEAN_MOTION_DOT":-2e-08,"MEAN_MOTION_DDOT":0.0},{"OBJECT_NAME":"ONEWEB-0652","OBJECT_ID":"2023-029U","EPOCH":"2026-05-16T01:08:48.064128","MEAN_MOTION":13.14503369,"ECCENTRICITY":0.0001844,"INCLINATION":87.8927,"RA_OF_ASC_NODE":296.124,"ARG_OF_PERICENTER":100.3964,"MEAN_ANOMALY":259.7373,"EPHEMERIS_TYPE":0,"CLASSIFICATION_TYPE":"U","NORAD_CAT_ID":55814,"ELEMENT_SET_NO":999,"REV_AT_EPOCH":15514,"BSTAR":0.00067276,"MEAN_MOTION_DOT":2.62e-06,"MEAN_MOTION_DDOT":0.0},{"OBJECT_NAME":"ONEWEB-0653","OBJECT_ID":"2023-029V","EPOCH":"2026-05-16T04:25:08.614272","MEAN_MOTION":13.14522078,"ECCENTRICITY":0.0002097,"INCLINATION":87.8928,"RA_OF_ASC_NODE":296.0936,"ARG_OF_PERICENTER":94.8609,"MEAN_ANOMALY":265.276,"EPHEMERIS_TYPE":0,"CLASSIFICATION_TYPE":"U","NORAD_CAT_ID":55815,"ELEMENT_SET_NO":999,"REV_AT_EPOCH":15519,"BSTAR":0.0054403,"MEAN_MOTION_DOT":2.031e-05,"MEAN_MOTION_DDOT":0.0},{"OBJECT_NAME":"ONEWEB-0654","OBJECT_ID":"2023-029W","EPOCH":"2026-05-16T00:39:05.343552","MEAN_MOTION":13.14500926,"ECCENTRICITY":0.0002149,"INCLINATION":87.893,"RA_OF_ASC_NODE":296.1205,"ARG_OF_PERICENTER":101.3294,"MEAN_ANOMALY":258.8077,"EPHEMERIS_TYPE":0,"CLASSIFICATION_TYPE":"U","NORAD_CAT_ID":55816,"ELEMENT_SET_NO":999,"REV_AT_EPOCH":15519,"BSTAR":-9.970500000000001e-05,"MEAN_MOTION_DOT":-2.4e-07,"MEAN_MOTION_DDOT":0.0}]